[{"OBJECT_NAME":"STARLINK-1331","OBJECT_ID":"2020-025AZ","EPOCH":"2026-03-09T23:01:45.024960","MEAN_MOTION":15.48337818,"ECCENTRICITY":0.00048402,"INCLINATION":53.0535,"RA_OF_ASC_NODE":63.873,"ARG_OF_PERICENTER":82.5874,"MEAN_ANOMALY":277.5683,"EPHEMERIS_TYPE":0,"CLASSIFICATION_TYPE":"U","NORAD_CAT_ID":45578,"ELEMENT_SET_NO":999,"REV_AT_EPOCH":32572,"BSTAR":0.0018648663,"MEAN_MOTION_DOT":0.0010115,"MEAN_MOTION_DDOT":0},{"OBJECT_NAME":"COSMOS 2251 DEB","OBJECT_ID":"1993-036TH","EPOCH":"2026-03-09T14:42:57.031776","MEAN_MOTION":15.49743704,"ECCENTRICITY":0.00117997,"INCLINATION":73.9793,"RA_OF_ASC_NODE":250.953,"ARG_OF_PERICENTER":35.5004,"MEAN_ANOMALY":324.6991,"EPHEMERIS_TYPE":0,"CLASSIFICATION_TYPE":"U","NORAD_CAT_ID":34464,"ELEMENT_SET_NO":999,"REV_AT_EPOCH":91174,"BSTAR":0.0042806749,"MEAN_MOTION_DOT":0.00246044,"MEAN_MOTION_DDOT":0}]
